[{"OBJECT_NAME":"ASTROCAST-0402","OBJECT_ID":"2023-001DE","EPOCH":"2026-03-09T19:21:31.190400","MEAN_MOTION":15.26734153,"ECCENTRICITY":0.00042092,"INCLINATION":97.5556,"RA_OF_ASC_NODE":160.6821,"ARG_OF_PERICENTER":216.6984,"MEAN_ANOMALY":143.3966,"EPHEMERIS_TYPE":0,"CLASSIFICATION_TYPE":"U","NORAD_CAT_ID":55109,"ELEMENT_SET_NO":999,"REV_AT_EPOCH":12936,"BSTAR":0.00041835119,"MEAN_MOTION_DOT":0.0001093,"MEAN_MOTION_DDOT":0},{"OBJECT_NAME":"STARLINK-31244","OBJECT_ID":"2024-019D","EPOCH":"2026-03-09T13:29:07.131840","MEAN_MOTION":15.27599347,"ECCENTRICITY":0.00021016,"INCLINATION":43.0044,"RA_OF_ASC_NODE":249.5832,"ARG_OF_PERICENTER":278.4832,"MEAN_ANOMALY":81.5781,"EPHEMERIS_TYPE":0,"CLASSIFICATION_TYPE":"U","NORAD_CAT_ID":58856,"ELEMENT_SET_NO":999,"REV_AT_EPOCH":11906,"BSTAR":-6.9451264e-5,"MEAN_MOTION_DOT":-2.174e-5,"MEAN_MOTION_DDOT":0}]
